NORAD_CAT_ID,OBJECT_NAME,OBJECT_TYPE,EPOCH,MEAN_MOTION,ECCENTRICITY,INCLINATION,RA_OF_ASC_NODE,ARG_OF_PERICENTER,MEAN_ANOMALY,BSTAR,MEAN_MOTION_DOT,MEAN_MOTION_DDOT,TLE_LINE0,TLE_LINE1,TLE_LINE2,SEMIMAJOR_AXIS,PERIOD,APOGEE,PERIGEE,DECAYED
52533.0,STARLINK-3951,PAYLOAD,2023-02-20 19:23:24,15.08846022,0.0001749,53.2151,85.0417,82.2836,277.8354,0.00050008,7.681e-05,0.0,0 STARLINK-3951,1 52533U 22051A   23051.80792406  .00007681  00000-0  50008-3 0  9993,2 52533  53.2151  85.0417 0001749  82.2836 277.8354 15.08846022 43506,6917.862,95.437,540.937,538.517,0.0
52533.0,STARLINK-3951,PAYLOAD,2023-02-21 09:41:52,15.08848263,0.0001688,53.2148,82.365,83.3304,276.788,0.00033977,5.125e-05,0.0,0 STARLINK-3951,1 52533U 22051A   23052.40408235  .00005125  00000-0  33977-3 0  9991,2 52533  53.2148  82.3650 0001688  83.3304 276.7880 15.08848263 43528,6917.855,95.437,540.888,538.552,0.0
52533.0,STARLINK-3951,PAYLOAD,2023-02-21 19:14:11,15.0884963,0.0001636,53.2149,80.5812,82.8214,277.2964,0.00030767,4.613e-05,0.0,0 STARLINK-3951,1 52533U 22051A   23052.80152065  .00004613  00000-0  30767-3 0  9997,2 52533  53.2149  80.5812 0001636  82.8214 277.2964 15.08849630 43658,6917.851,95.437,540.848,538.584,0.0
52533.0,STARLINK-3951,PAYLOAD,2023-02-22 07:57:16,15.08846235,0.0001799,53.2151,78.201,91.664,268.4558,0.00011596,1.558e-05,0.0,0 STARLINK-3951,1 52533U 22051A   23053.33144066  .00001558  00000-0  11596-3 0  9992,2 52533  53.2151  78.2010 0001799  91.6640 268.4558 15.08846235 43734,6917.861,95.437,540.971,538.482,0.0
52533.0,STARLINK-3951,PAYLOAD,2023-02-22 19:04:58,15.08836995,0.000179,53.2147,76.1206,86.2316,273.8881,5.7827e-06,-1.96e-06,0.0,0 STARLINK-3951,1 52533U 22051A   23053.79512640 -.00000196  00000-0  57827-5 0  9996,2 52533  53.2147  76.1206 0001790  86.2316 273.8881 15.08836995 43803,6917.89,95.438,540.993,538.516,0.0
52533.0,STARLINK-3951,PAYLOAD,2023-02-23 10:58:50,15.08838475,0.0001584,53.2146,73.1439,101.9477,258.1692,2.2103e-05,6.4e-07,0.0,0 STARLINK-3951,1 52533U 22051A   23054.45752609  .00000064  00000-0  22103-4 0  9992,2 52533  53.2146  73.1439 0001584 101.9477 258.1692 15.08838475 43835,6917.885,95.438,540.846,538.654,0.0
52533.0,STARLINK-3951,PAYLOAD,2023-02-24 01:17:18,15.08841014,0.0001599,53.2148,70.4672,105.9659,254.151,0.00016187,2.289e-05,0.0,0 STARLINK-3951,1 52533U 22051A   23055.05368629  .00002289  00000-0  16187-3 0  9999,2 52533  53.2148  70.4672 0001599 105.9659 254.1510 15.08841014 43993,6917.877,95.437,540.848,538.636,0.0
52533.0,STARLINK-3951,PAYLOAD,2023-02-24 10:49:36,15.0885029,0.0001638,53.2146,68.6824,106.6044,253.5128,0.00031781,4.775e-05,0.0,0 STARLINK-3951,1 52533U 22051A   23055.45112247  .00004775  00000-0  31781-3 0  9995,2 52533  53.2146  68.6824 0001638 106.6044 253.5128 15.08850290 43982,6917.849,95.437,540.847,538.581,0.0
52533.0,STARLINK-3951,PAYLOAD,2023-02-25 01:08:05,15.08831833,0.0001136,53.2146,66.0063,98.236,261.8761,2.4523e-05,1.02e-06,0.0,0 STARLINK-3951,1 52533U 22051A   23056.04729139  .00000102  00000-0  24523-4 0  9992,2 52533  53.2146  66.0063 0001136  98.2360 261.8761 15.08831833 44145,6917.905,95.438,540.556,538.984,0.0
52533.0,STARLINK-3951,PAYLOAD,2023-02-25 09:05:01,15.08843217,0.0001413,53.2147,64.5196,99.4314,260.6838,0.00021791,3.182e-05,0.0,0 STARLINK-3951,1 52533U 22051A   23056.37848901  .00003182  00000-0  21791-3 0  9991,2 52533  53.2147  64.5196 0001413  99.4314 260.6838 15.08843217 44192,6917.871,95.437,540.713,538.758,0.0
52533.0,STARLINK-3951,PAYLOAD,2023-02-25 17:01:57,15.08842845,0.0001353,53.2151,63.0327,98.8301,261.2844,0.00019545,2.824e-05,0.0,0 STARLINK-3951,1 52533U 22051A   23056.70968912  .00002824  00000-0  19545-3 0  9999,2 52533  53.2151  63.0327 0001353  98.8301 261.2844 15.08842845 44177,6917.872,95.437,540.673,538.801,0.0
52533.0,STARLINK-3951,PAYLOAD,2023-02-26 10:31:11,15.08862257,0.0001479,53.2163,59.7629,104.3408,255.7748,0.00093872,0.00014692,0.0,0 STARLINK-3951,1 52533U 22051A   23057.43832524  .00014692  00000-0  93872-3 0  9990,2 52533  53.2163  59.7629 0001479 104.3408 255.7748 15.08862257 44357,6917.812,95.436,540.701,538.654,0.0
52533.0,STARLINK-3951,PAYLOAD,2023-02-26 12:06:34,15.08865086,0.0001456,53.2161,59.4654,102.8782,257.2373,0.0009839,0.00015416,0.0,0 STARLINK-3951,1 52533U 22051A   23057.50456406  .00015416  00000-0  98390-3 0  9994,2 52533  53.2161  59.4654 0001456 102.8782 257.2373 15.08865086 44290,6917.804,95.436,540.676,538.661,0.0
52533.0,STARLINK-3951,PAYLOAD,2023-02-26 16:52:44,15.08846602,0.0001268,53.2163,58.5737,94.9751,265.1386,0.00025695,3.805e-05,0.0,0 STARLINK-3951,1 52533U 22051A   23057.70328727  .00003805  00000-0  25695-3 0  9997,2 52533  53.2163  58.5737 0001268  94.9751 265.1386 15.08846602 44398,6917.86,95.437,540.602,538.848,0.0
52533.0,STARLINK-3951,PAYLOAD,2023-02-27 05:35:49,15.08842049,0.0001533,53.2167,56.1954,95.3513,264.7654,0.00021958,3.209e-05,0.0,0 STARLINK-3951,1 52533U 22051A   23058.23321114  .00003209  00000-0  21958-3 0  9995,2 52533  53.2167  56.1954 0001533  95.3513 264.7654 15.08842049 44476,6917.874,95.437,540.8,538.679,0.0
52533.0,STARLINK-3951,PAYLOAD,2023-02-27 08:46:35,15.08852766,0.0001421,53.2163,55.6005,96.4964,263.619,0.0008952,0.00013993,0.0,0 STARLINK-3951,1 52533U 22051A   23058.36568954  .00013993  00000-0  89520-3 0  9994,2 52533  53.2163  55.6005 0001421  96.4964 263.6190 15.08852766 44426,6917.841,95.437,540.689,538.723,0.0
52533.0,STARLINK-3951,PAYLOAD,2023-02-27 16:43:31,15.08872678,9.52e-05,53.216,54.1134,87.4704,272.6397,0.0019622,0.00031107,0.0,0 STARLINK-3951,1 52533U 22051A   23058.69688743  .00031107  00000-0  19622-2 0  9991,2 52533  53.2160  54.1134 0000952  87.4704 272.6397 15.08872678 44546,6917.781,95.435,540.304,538.987,0.0
52533.0,STARLINK-3951,PAYLOAD,2023-02-28 07:01:59,15.08858454,0.0001633,53.2158,51.4364,77.5002,282.6173,0.0011254,0.00017677,0.0,0 STARLINK-3951,1 52533U 22051A   23059.29304864  .00017677  00000-0  11254-2 0  9996,2 52533  53.2158  51.4364 0001633  77.5002 282.6173 15.08858454 44635,6917.824,95.436,540.819,538.559,0.0
52533.0,STARLINK-3951,PAYLOAD,2023-02-28 16:34:18,15.08842187,0.0001834,53.2157,49.6528,72.8308,287.2885,0.0003325,5.008e-05,0.0,0 STARLINK-3951,1 52533U 22051A   23059.69049275  .00005008  00000-0  33250-3 0  9998,2 52533  53.2157  49.6528 0001834  72.8308 287.2885 15.08842187 44621,6917.874,95.437,541.007,538.47,0.0
52533.0,STARLINK-3951,PAYLOAD,2023-03-01 05:17:24,15.08816745,7.39e-05,53.2157,47.2739,72.776,287.3313,-9.4778e-05,-1.795e-05,0.0,0 STARLINK-3951,1 52533U 22051A   23060.22042257 -.00001795  00000-0 -94778-4 0  9996,2 52533  53.2157  47.2739 0000739  72.7760 287.3313 15.08816745 44777,6917.951,95.439,540.328,539.305,0.0
52533.0,STARLINK-3951,PAYLOAD,2023-03-01 16:25:07,15.0883967,9.13e-05,53.2157,45.1931,71.9064,288.2027,0.0023608,0.00037484,0.0,0 STARLINK-3951,1 52533U 22051A   23060.68411146  .00037484  00000-0  23608-2 0  9997,2 52533  53.2157  45.1931 0000913  71.9064 288.2027 15.08839670 44842,6917.881,95.438,540.378,539.115,0.0
52533.0,STARLINK-3951,PAYLOAD,2023-03-02 16:15:52,15.08882533,7.74e-05,53.2172,40.7317,79.1647,280.9432,0.0010329,0.00016208,0.0,0 STARLINK-3951,1 52533U 22051A   23061.67769141  .00016208  00000-0  10329-2 0  9995,2 52533  53.2172  40.7317 0000774  79.1647 280.9432 15.08882533 44924,6917.75,95.435,540.151,539.08,0.0
52533.0,STARLINK-3951,PAYLOAD,2023-03-03 08:09:43,15.08882852,0.0001271,53.2182,37.7581,108.8537,251.2593,0.0019275,0.00030558,0.0,0 STARLINK-3951,1 52533U 22051A   23062.34008373  .00030558  00000-0  19275-2 0  9996,2 52533  53.2182  37.7581 0001271 108.8537 251.2593 15.08882852 45097,6917.749,95.435,540.494,538.735,0.0
52533.0,STARLINK-3951,PAYLOAD,2023-03-04 04:49:43,15.08882022,0.0001312,53.2174,33.8916,105.083,255.0307,0.0025171,0.00040046,0.0,0 STARLINK-3951,1 52533U 22051A   23063.20119891  .00040046  00000-0  25171-2 0  9995,2 52533  53.2174  33.8916 0001312 105.0830 255.0307 15.08882022 45227,6917.752,95.435,540.525,538.709,0.0
52533.0,STARLINK-3951,PAYLOAD,2023-03-04 22:18:58,15.08846933,0.0001904,53.2184,30.6208,110.2883,249.8314,0.0022808,0.00036205,0.0,0 STARLINK-3951,1 52533U 22051A   23063.92984873  .00036205  00000-0  22808-2 0  9990,2 52533  53.2184  30.6208 0001904 110.2883 249.8314 15.08846933 45332,6917.859,95.437,541.041,538.407,0.0
52533.0,STARLINK-3951,PAYLOAD,2023-03-05 07:51:17,15.08846808,0.0001388,53.218,28.8363,95.3694,264.7456,0.002417,0.00038396,0.0,0 STARLINK-3951,1 52533U 22051A   23064.32729105  .00038396  00000-0  24170-2 0  9997,2 52533  53.2180  28.8363 0001388  95.3694 264.7456 15.08846808 45398,6917.86,95.437,540.685,538.764,0.0
52533.0,STARLINK-3951,PAYLOAD,2023-03-06 04:31:18,15.08864161,0.0001539,53.2179,24.9741,100.6549,259.4617,0.002177,0.00034552,0.0,0 STARLINK-3951,1 52533U 22051A   23065.18841284  .00034552  00000-0  21770-2 0  9998,2 52533  53.2179  24.9741 0001539 100.6549 259.4617 15.08864161 45527,6917.807,95.436,540.736,538.607,0.0
52533.0,STARLINK-3951,PAYLOAD,2023-03-06 07:42:04,15.08892895,0.000139,53.2171,24.3772,95.653,264.4621,0.0030391,0.00048483,0.0,0 STARLINK-3951,1 52533U 22051A   23065.32088685  .00048483  00000-0  30391-2 0  9999,2 52533  53.2171  24.3772 0001390  95.6530 264.4621 15.08892895 45543,6917.719,95.434,540.545,538.622,0.0
52533.0,STARLINK-3951,PAYLOAD,2023-03-06 20:25:10,15.08850182,0.0001864,53.2172,21.997,103.8404,256.2796,0.0015913,0.00025136,0.0,0 STARLINK-3951,1 52533U 22051A   23065.85081090  .00025136  00000-0  15913-2 0  9993,2 52533  53.2172  21.9970 0001864 103.8404 256.2796 15.08850182 45629,6917.849,95.437,541.004,538.425,0.0
52533.0,STARLINK-3951,PAYLOAD,2023-03-07 05:57:29,15.08848788,0.0001817,53.217,20.21,101.8237,258.2959,0.00074121,0.00011531,0.0,0 STARLINK-3951,1 52533U 22051A   23066.24825248  .00011531  00000-0  74121-3 0  9999,2 52533  53.2170  20.2100 0001817 101.8237 258.2959 15.08848788 45682,6917.854,95.437,540.976,538.462,0.0
